start=new Date('2021-12-25T00:00:00.000Z').valueOf();
sats=[{"MEAN_MOTION_DOT":"0.00001968","SITE":"AFETR","ECCENTRICITY":"0.00025110","OBJECT_ID":"2020-019Z","TIME_SYSTEM":"UTC","INCLINATION":"53.0523","REV_AT_EPOCH":"9852","ELEMENT_SET_NO":"999","BSTAR":"0.00015103000000","EPHEMERIS_TYPE":"0","PERIOD":"95.593","TLE_LINE1":"1 45383U 20019Z   21358.88463547  .00001968  00000-0  15103-3 0  9996","REF_FRAME":"TEME","RA_OF_ASC_NODE":"201.1094","MEAN_MOTION":"15.06389568","OBJECT_TYPE":"PAYLOAD","PERIAPSIS":"545.507","NORAD_CAT_ID":"45383","LAUNCH_DATE":"2020-03-18","OBJECT_NAME":"STARLINK-1266","SEMIMAJOR_AXIS":"6925.381","GP_ID":"192396246","ARG_OF_PERICENTER":"81.0761","APOAPSIS":"548.984","MEAN_ANOMALY":"279.0512","MEAN_MOTION_DDOT":"0.0000000000000","CLASSIFICATION_TYPE":"U","RCS_SIZE":"LARGE","CENTER_NAME":"EARTH","TLE_LINE2":"2 45383  53.0523 201.1094 0002511  81.0761 279.0512 15.06389568 98523","COUNTRY_CODE":"US","EPOCH":"2021-12-24T21:13:52.504608","FILE":"3250462","MEAN_ELEMENT_THEORY":"SGP4","DECAY_DATE":null},{"RCS_SIZE":"LARGE","CENTER_NAME":"EARTH","EPOCH":"2021-12-24T20:57:57.300768","TLE_LINE2":"2 45384  53.0544 201.1597 0002342  78.9476 281.1776 15.06387006 98526","COUNTRY_CODE":"US","FILE":"3250462","MEAN_ELEMENT_THEORY":"SGP4","DECAY_DATE":null,"NORAD_CAT_ID":"45384","PERIAPSIS":"545.631","LAUNCH_DATE":"2020-03-18","OBJECT_NAME":"STARLINK-1267","SEMIMAJOR_AXIS":"6925.388","GP_ID":"192394994","ARG_OF_PERICENTER":"78.9476","APOAPSIS":"548.875","MEAN_ANOMALY":"281.1776","MEAN_MOTION_DDOT":"0.0000000000000","CLASSIFICATION_TYPE":"U","PERIOD":"95.593","TLE_LINE1":"1 45384U 20019AA  21358.87357987  .00001760  00000-0  13711-3 0  9999","REF_FRAME":"TEME","RA_OF_ASC_NODE":"201.1597","MEAN_MOTION":"15.06387006","OBJECT_TYPE":"PAYLOAD","MEAN_MOTION_DOT":"0.00001760","SITE":"AFETR","ECCENTRICITY":"0.00023420","OBJECT_ID":"2020-019AA","TIME_SYSTEM":"UTC","REV_AT_EPOCH":"9852","INCLINATION":"53.0544","ELEMENT_SET_NO":"999","BSTAR":"0.00013711000000","EPHEMERIS_TYPE":"0"},{"REV_AT_EPOCH":"9852","INCLINATION":"53.0537","ELEMENT_SET_NO":"999","EPHEMERIS_TYPE":"0","BSTAR":"0.00015749000000","SITE":"AFETR","ECCENTRICITY":"0.00024320","TIME_SYSTEM":"UTC","OBJECT_ID":"2020-019AC","MEAN_MOTION_DOT":"0.00002064","OBJECT_TYPE":"PAYLOAD","MEAN_MOTION":"15.06394658","REF_FRAME":"TEME","RA_OF_ASC_NODE":"201.1578","PERIOD":"95.592","TLE_LINE1":"1 45386U 20019AC  21358.87725711  .00002064  00000-0  15749-3 0  9996","MEAN_MOTION_DDOT":"0.0000000000000","CLASSIFICATION_TYPE":"U","ARG_OF_PERICENTER":"80.6954","MEAN_ANOMALY":"279.4310","APOAPSIS":"548.914","SEMIMAJOR_AXIS":"6925.365","GP_ID":"192395244","PERIAPSIS":"545.546","NORAD_CAT_ID":"45386","LAUNCH_DATE":"2020-03-18","OBJECT_NAME":"STARLINK-1272","DECAY_DATE":null,"FILE":"3250462","MEAN_ELEMENT_THEORY":"SGP4","COUNTRY_CODE":"US","TLE_LINE2":"2 45386  53.0537 201.1578 0002432  80.6954 279.4310 15.06394658 98525","EPOCH":"2021-12-24T21:03:15.014304","RCS_SIZE":"LARGE","CENTER_NAME":"EARTH"},{"MEAN_ELEMENT_THEORY":"SGP4","FILE":"3250462","DECAY_DATE":null,"RCS_SIZE":"LARGE","CENTER_NAME":"EARTH","COUNTRY_CODE":"US","TLE_LINE2":"2 45387  53.0524 201.3517 0002632  79.8008 280.3278 15.06404406 98515","EPOCH":"2021-12-24T19:59:32.238528","ARG_OF_PERICENTER":"79.8008","APOAPSIS":"549.023","MEAN_ANOMALY":"280.3278","CLASSIFICATION_TYPE":"U","MEAN_MOTION_DDOT":"0.0000000000000","LAUNCH_DATE":"2020-03-18","OBJECT_NAME":"STARLINK-1274","PERIAPSIS":"545.377","NORAD_CAT_ID":"45387","GP_ID":"192395496","SEMIMAJOR_AXIS":"6925.335","MEAN_MOTION":"15.06404406","OBJECT_TYPE":"PAYLOAD","TLE_LINE1":"1 45387U 20019AD  21358.83301202  .00003074  00000-0  22518-3 0  9992","PERIOD":"95.592","RA_OF_ASC_NODE":"201.3517","REF_FRAME":"TEME","SITE":"AFETR","ECCENTRICITY":"0.00026320","TIME_SYSTEM":"UTC","OBJECT_ID":"2020-019AD","BSTAR":"0.00022518000000","EPHEMERIS_TYPE":"0","INCLINATION":"53.0524","REV_AT_EPOCH":"9851","ELEMENT_SET_NO":"999","MEAN_MOTION_DOT":"0.00003074"},{"EPHEMERIS_TYPE":"0","BSTAR":"0.00030266000000","REV_AT_EPOCH":"9823","INCLINATION":"53.0523","ELEMENT_SET_NO":"999","SITE":"AFETR","ECCENTRICITY":"0.00023030","TIME_SYSTEM":"UTC","OBJECT_ID":"2020-019AE","MEAN_MOTION_DOT":"0.00004229","OBJECT_TYPE":"PAYLOAD","MEAN_MOTION":"15.06398357","RA_OF_ASC_NODE":"221.1879","REF_FRAME":"TEME","TLE_LINE1":"1 45388U 20019AE  21358.86804972  .00004229  00000-0  30266-3 0  9990","PERIOD":"95.592","CLASSIFICATION_TYPE":"U","MEAN_MOTION_DDOT":"0.0000000000000","ARG_OF_PERICENTER":"72.3890","APOAPSIS":"548.814","MEAN_ANOMALY":"287.7351","GP_ID":"192395747","SEMIMAJOR_AXIS":"6925.354","LAUNCH_DATE":"2020-03-18","OBJECT_NAME":"STARLINK-1280","PERIAPSIS":"545.624","NORAD_CAT_ID":"45388","DECAY_DATE":null,"MEAN_ELEMENT_THEORY":"SGP4","FILE":"3250462","COUNTRY_CODE":"US","TLE_LINE2":"2 45388  53.0523 221.1879 0002303  72.3890 287.7351 15.06398357 98237","EPOCH":"2021-12-24T20:49:59.495808","RCS_SIZE":"LARGE","CENTER_NAME":"EARTH"},{"REF_FRAME":"TEME","RA_OF_ASC_NODE":"201.2667","PERIOD":"95.593","TLE_LINE1":"1 45389U 20019AF  21358.84775774  .00002982  00000-0  21906-3 0  9991","OBJECT_TYPE":"PAYLOAD","MEAN_MOTION":"15.06392075","MEAN_MOTION_DOT":"0.00002982","INCLINATION":"53.0550","REV_AT_EPOCH":"9852","ELEMENT_SET_NO":"999","EPHEMERIS_TYPE":"0","BSTAR":"0.00021906000000","ECCENTRICITY":"0.00022760","SITE":"AFETR","OBJECT_ID":"2020-019AF","TIME_SYSTEM":"UTC","COUNTRY_CODE":"US","TLE_LINE2":"2 45389  53.0550 201.2667 0002276  73.3984 286.7255 15.06392075 98521","EPOCH":"2021-12-24T20:20:46.268736","RCS_SIZE":"LARGE","CENTER_NAME":"EARTH","DECAY_DATE":null,"FILE":"3250462","MEAN_ELEMENT_THEORY":"SGP4","SEMIMAJOR_AXIS":"6925.373","GP_ID":"192394495","NORAD_CAT_ID":"45389","PERIAPSIS":"545.662","LAUNCH_DATE":"2020-03-18","OBJECT_NAME":"STARLINK-1283","MEAN_MOTION_DDOT":"0.0000000000000","CLASSIFICATION_TYPE":"U","ARG_OF_PERICENTER":"73.3984","MEAN_ANOMALY":"286.7255","APOAPSIS":"548.814"},{"RCS_SIZE":"LARGE","CENTER_NAME":"EARTH","TLE_LINE2":"2 45390  53.0542 201.1116 0001981  71.5876 288.5328 15.06384882 98522","EPOCH":"2021-12-24T21:19:11.285184","COUNTRY_CODE":"US","MEAN_ELEMENT_THEORY":"SGP4","FILE":"3250462","DECAY_DATE":null,"LAUNCH_DATE":"2020-03-18","OBJECT_NAME":"STARLINK-1284","NORAD_CAT_ID":"45390","PERIAPSIS":"545.888","GP_ID":"192394745","SEMIMAJOR_AXIS":"6925.395","ARG_OF_PERICENTER":"71.5876","APOAPSIS":"548.632","MEAN_ANOMALY":"288.5328","CLASSIFICATION_TYPE":"U","MEAN_MOTION_DDOT":"0.0000000000000","TLE_LINE1":"1 45390U 20019AG  21358.88832506  .00001499  00000-0  11959-3 0  9993","PERIOD":"95.593","RA_OF_ASC_NODE":"201.1116","REF_FRAME":"TEME","MEAN_MOTION":"15.06384882","OBJECT_TYPE":"PAYLOAD","MEAN_MOTION_DOT":"0.00001499","ECCENTRICITY":"0.00019810","SITE":"AFETR","TIME_SYSTEM":"UTC","OBJECT_ID":"2020-019AG","EPHEMERIS_TYPE":"0","BSTAR":"0.00011959000000","INCLINATION":"53.0542","REV_AT_EPOCH":"9852","ELEMENT_SET_NO":"999"},{"CENTER_NAME":"EARTH","RCS_SIZE":"LARGE","TLE_LINE2":"2 45391  53.0537 201.3345 0002151  83.4990 276.6244 15.06387034 98248","COUNTRY_CODE":"US","EPOCH":"2021-12-24T20:04:52.241664","FILE":"3250462","MEAN_ELEMENT_THEORY":"SGP4","DECAY_DATE":null,"PERIAPSIS":"545.764","NORAD_CAT_ID":"45391","OBJECT_NAME":"STARLINK-1289","LAUNCH_DATE":"2020-03-18","SEMIMAJOR_AXIS":"6925.388","GP_ID":"192395996","MEAN_ANOMALY":"276.6244","APOAPSIS":"548.743","ARG_OF_PERICENTER":"83.4990","MEAN_MOTION_DDOT":"0.0000000000000","CLASSIFICATION_TYPE":"U","PERIOD":"95.593","TLE_LINE1":"1 45391U 20019AH  21358.83671576  .00001135  00000-0  95139-4 0  9997","REF_FRAME":"TEME","RA_OF_ASC_NODE":"201.3345","MEAN_MOTION":"15.06387034","OBJECT_TYPE":"PAYLOAD","MEAN_MOTION_DOT":"0.00001135","TIME_SYSTEM":"UTC","OBJECT_ID":"2020-019AH","ECCENTRICITY":"0.00021510","SITE":"AFETR","ELEMENT_SET_NO":"999","INCLINATION":"53.0537","REV_AT_EPOCH":"9824","BSTAR":"0.00009513900000","EPHEMERIS_TYPE":"0"},{"DECAY_DATE":null,"MEAN_ELEMENT_THEORY":"SGP4","FILE":"3250462","EPOCH":"2021-12-24T20:37:40.433664","TLE_LINE2":"2 45392  52.9926 196.8113 0002610 106.5980 253.5296 15.08649610 98273","COUNTRY_CODE":"US","CENTER_NAME":"EARTH","RCS_SIZE":"LARGE","CLASSIFICATION_TYPE":"U","MEAN_MOTION_DDOT":"0.0000000000000","APOAPSIS":"542.133","MEAN_ANOMALY":"253.5296","ARG_OF_PERICENTER":"106.5980","GP_ID":"192396247","SEMIMAJOR_AXIS":"6918.462","OBJECT_NAME":"STARLINK-1290","LAUNCH_DATE":"2020-03-18","PERIAPSIS":"538.522","NORAD_CAT_ID":"45392","OBJECT_TYPE":"PAYLOAD","MEAN_MOTION":"15.08649610","RA_OF_ASC_NODE":"196.8113","REF_FRAME":"TEME","TLE_LINE1":"1 45392U 20019AJ  21358.85949576  .00003634  00000-0  24758-3 0  9992","PERIOD":"95.450","EPHEMERIS_TYPE":"0","BSTAR":"0.00024758000000","ELEMENT_SET_NO":"999","REV_AT_EPOCH":"9827","INCLINATION":"52.9926","TIME_SYSTEM":"UTC","OBJECT_ID":"2020-019AJ","SITE":"AFETR","ECCENTRICITY":"0.00026100","MEAN_MOTION_DOT":"0.00003634"},{"RCS_SIZE":"LARGE","CENTER_NAME":"EARTH","EPOCH":"2021-12-24T20:47:19.465728","TLE_LINE2":"2 45393  53.0530 201.2022 0001926  82.3490 277.7718 15.06393189 98286","COUNTRY_CODE":"US","MEAN_ELEMENT_THEORY":"SGP4","FILE":"3250462","DECAY_DATE":null,"LAUNCH_DATE":"2020-03-18","OBJECT_NAME":"STARLINK-1291","NORAD_CAT_ID":"45393","PERIAPSIS":"545.901","GP_ID":"192394995","SEMIMAJOR_AXIS":"6925.369","ARG_OF_PERICENTER":"82.3490","APOAPSIS":"548.568","MEAN_ANOMALY":"277.7718","CLASSIFICATION_TYPE":"U","MEAN_MOTION_DDOT":"0.0000000000000","TLE_LINE1":"1 45393U 20019AK  21358.86619752  .00002018  00000-0  15439-3 0  9995","PERIOD":"95.593","RA_OF_ASC_NODE":"201.2022","REF_FRAME":"TEME","MEAN_MOTION":"15.06393189","OBJECT_TYPE":"PAYLOAD","MEAN_MOTION_DOT":"0.00002018","SITE":"AFETR","ECCENTRICITY":"0.00019260","OBJECT_ID":"2020-019AK","TIME_SYSTEM":"UTC","EPHEMERIS_TYPE":"0","BSTAR":"0.00015439000000","REV_AT_EPOCH":"9828","INCLINATION":"53.0530","ELEMENT_SET_NO":"999"}];
